satname,norad_id,inclination_deg,eccentricity,mean_motion_rev_per_day,perigee_km,apogee_km,l1,l2
STARLINK-1454,45671,53.0534,0.0001543,15.06425896,546.0636225286917,548.2007606012085,1 45671U 20035Q   25265.26489021  .00005495  00000+0  38722-3 0  9992,2 45671  53.0534 102.7075 0001543  82.5405 277.5759 15.06425896293332
STARLINK-1456,45673,53.0541,0.0001406,15.06398956,546.2410531926362,548.1884621068866,1 45673U 20035S   25265.54503488  .00004592  00000+0  32697-3 0  9991,2 45673  53.0541 101.4510 0001406  86.4220 273.6929 15.06398956293396
STARLINK-1457,45674,53.0557,0.0001548,15.06406422,546.1198345932107,548.263916413066,1 45674U 20035T   25265.55239813 -.00000693  00000+0 -27588-4 0  9995,2 45674  53.0557 101.4137 0001548  93.8898 266.2268 15.06406422293368
STARLINK-1458,45675,53.0542,0.0001508,15.06393707,546.1864996730146,548.2751906151088,1 45675U 20035U   25265.54135702  .00003259  00000+0  23765-3 0  9998,2 45675  53.0542 101.4652 0001508  93.2414 266.8747 15.06393707293357
STARLINK-1460,45676,53.0528,0.0001308,15.06409808,546.275666334448,548.0873296535228,1 45676U 20035V   25265.24645908  .00001574  00000+0  12451-3 0  9998,2 45676  53.0528 102.7890 0001308  87.2399 272.8740 15.06409808293308
STARLINK-1392,45677,53.0548,0.0001352,15.06401369,546.2710555958638,548.1436687113901,1 45677U 20035W   25265.52291849  .00001498  00000+0  11944-3 0  9992,2 45677  53.0548 101.5499 0001352  97.0252 263.0891 15.06401369293380
STARLINK-1394,45679,53.0535,0.0001275,15.06398531,546.3330777001847,548.0990427305396,1 45679U 20035Y   25265.52015430  .00005813  00000+0  40885-3 0  9995,2 45679  53.0535  91.5611 0001275  85.1932 274.9203 15.06398531293529
STARLINK-1402,45685,53.0548,0.0001289,15.06406577,546.2987256230617,548.0840752846989,1 45685U 20035AE  25264.82110535  .00001324  00000+0  10777-3 0  9996,2 45685  53.0548  89.1198 0001289  93.0305 267.0832 15.06406577293509
STARLINK-1404,45686,53.0548,0.000147,15.06394974,546.2089334448228,548.2449904496343,1 45686U 20035AF  25265.54595559  .00000760  00000+0  69954-4 0  9995,2 45686  53.0548  91.4474 0001470  92.4280 267.6877 15.06394974293535
STARLINK-1413,45689,53.0535,0.0001434,15.0641618,546.1688811403237,548.155056884636,1 45689U 20035AJ  25264.83455372  .00003556  00000+0  25740-3 0  9997,2 45689  53.0535  94.6358 0001434  92.3921 267.7233 15.06416180293330
STARLINK-1417,45693,53.0536,0.0001411,15.06417477,546.1808348446448,548.1351530919419,1 45693U 20035AN  25264.83086986 -.00000987  00000+0 -47354-4 0  9996,2 45693  53.0536  94.6556 0001411  89.9421 270.1730 15.06417477293417
STARLINK-1420,45695,53.0551,0.0001339,15.06400428,546.2829421839679,548.1375501764951,1 45695U 20035AQ  25265.42889596  .00001298  00000+0  10599-3 0  9996,2 45695  53.0551  71.9618 0001339  86.3993 273.7150 15.06400428293791
STARLINK-1422,45696,53.054,0.0001244,15.06389881,546.3810541707999,548.1040886081619,1 45696U 20035AR  25265.50541652  .00003727  00000+0  26902-3 0  9998,2 45696  53.0540  91.6290 0001244  96.6033 263.5098 15.06389881293516
STARLINK-1351,45697,53.0546,0.0001218,15.06396498,546.3787823230368,548.0657998463448,1 45697U 20035AS  25265.48144463  .00000573  00000+0  57379-4 0  9994,2 45697  53.0546  71.7339 0001218  88.8297 271.2832 15.06396498293808
STARLINK-1398,45699,53.0522,0.0003802,15.43792226,432.33886268345304,437.5195182146699,1 45699U 20035AU  25265.58335648  .00115742  00000+0  24884-2 0  9992,2 45699  53.0522  42.0023 0003802 165.8351  39.0599 15.43792226  5938
STARLINK-1400,45700,53.0537,0.0001343,15.06405007,546.2661399965182,548.126284497328,1 45700U 20035AV  25265.45565052  .00002420  00000+0  18131-3 0  9992,2 45700  53.0537  71.8516 0001343  94.1220 265.9923 15.06405007293792
STARLINK-1403,45701,53.054,0.0001338,15.06404526,546.2710766538266,548.1242962159167,1 45701U 20035AW  25265.48513768  .00002664  00000+0  19766-3 0  9998,2 45701  53.0540  71.7175 0001338  83.7632 276.3509 15.06404526293793
STARLINK-1407,45703,53.0449,0.0007394,15.34783061,456.50766338454923,466.62221461193985,1 45703U 20035AY  25265.55557748  .00146171  00000+0  41994-2 0  9993,2 45703  53.0449  38.6518 0007394 244.4974 115.5263 15.34783061294279
STARLINK-1411,45706,53.0562,6.88e-05,15.28924316,478.5549071869491,479.4984529093226,1 45706U 20035BB  25265.58335648  .00112016  00000+0  38868-2 0  9999,2 45706  53.0562  64.8384 0000688  81.2438  51.7646 15.28924316  5944
STARLINK-1423,45710,53.0554,0.0001683,15.06392915,546.0677327110916,548.3988123448244,1 45710U 20035BF  25265.44458816 -.00000131  00000+0  10084-4 0  9999,2 45710  53.0554  71.9024 0001683  87.9936 272.1246 15.06392915293799
STARLINK-1433,45711,53.0546,0.0001376,15.06405473,546.2418583788367,548.1477096858016,1 45711U 20035BG  25265.49250896  .00000769  00000+0  70497-4 0  9993,2 45711  53.0546  71.6852 0001376  95.0983 265.0163 15.06405473293791
STARLINK-1434,45712,53.052,0.0003475,15.11474822,529.3003248539299,534.1026626070725,1 45712U 20035BH  25265.44318462  .00051980  00000+0  30318-2 0  9990,2 45712  53.0520  70.0358 0003475 119.0873 241.0467 15.11474822293820
STARLINK-1465,45731,53.0531,0.0001289,15.06397028,546.3279881019689,548.1133453084449,1 45731U 20038B   25265.32664652  .00005128  00000+0  36292-3 0  9997,2 45731  53.0531 272.4300 0001289  82.2705 277.8430 15.06397028290813
STARLINK-1471,45735,53.0523,0.0003471,15.38300354,448.76462704169626,453.5055077108682,1 45735U 20038F   25265.61068596  .00027118  00000+0  71551-3 0  9998,2 45735  53.0523 220.6176 0003471  56.8864 303.2472 15.38300354291577
STARLINK-1474,45738,53.0393,0.0006457,15.60532073,381.75142048080215,390.486780809174,1 45738U 20038J   25265.58335648  .00180033  00000+0  21001-2 0  9992,2 45738  53.0393 184.8190 0006457 122.7667 138.2686 15.60532073  6042
STARLINK-1475,45739,53.0536,0.0008295,15.59550381,383.34410090818074,394.5707105272677,1 45739U 20038K   25265.38955459  .00185730  00000+0  22462-2 0  9990,2 45739  53.0536 153.4562 0008295  88.1057 272.0905 15.59550381292506
STARLINK-1480,45741,53.0532,0.000126,15.06418528,546.2821861054417,548.0273596322049,1 45741U 20038M   25265.30820094  .00001804  00000+0  13990-3 0  9997,2 45741  53.0532 272.5157 0001260  94.3826 265.7307 15.06418528290822
STARLINK-1500,45744,53.0369,0.0005576,15.25301571,486.0504169732221,493.7096295575675,1 45744U 20038Q   25265.28021474  .00087461  00000+0  34001-2 0  9990,2 45744  53.0369 257.0174 0005576  70.2494 289.9104 15.25301571291035
